start=new Date('2022-08-09T00:00:00.000Z').valueOf();
sats=[{"MEAN_MOTION":"15.06418060","SITE":"AFETR","MEAN_ELEMENT_THEORY":"SGP4","CENTER_NAME":"EARTH","RCS_SIZE":"LARGE","PERIAPSIS":"546.245","COUNTRY_CODE":"US","TIME_SYSTEM":"UTC","REV_AT_EPOCH":"13974","TLE_LINE2":"2 45098  53.0542   2.3436 0001318  98.6213 261.4926 15.06418060139742","ELEMENT_SET_NO":"999","TLE_LINE1":"1 45098U 20006BG  22220.82236033  .00006690  00000-0  46736-3 0  9999","FILE":"3532305","BSTAR":"0.00046736000000","REF_FRAME":"TEME","MEAN_MOTION_DOT":"0.00006690","ARG_OF_PERICENTER":"98.6213","NORAD_CAT_ID":"45098","ECCENTRICITY":"0.00013180","INCLINATION":"53.0542","OBJECT_ID":"2020-006BG","DECAY_DATE":null,"PERIOD":"95.591","MEAN_ANOMALY":"261.4926","OBJECT_TYPE":"PAYLOAD","CLASSIFICATION_TYPE":"U","SEMIMAJOR_AXIS":"6925.293","RA_OF_ASC_NODE":"2.3436","LAUNCH_DATE":"2020-01-29","EPHEMERIS_TYPE":"0","EPOCH":"2022-08-08T19:44:11.932512","GP_ID":"209858142","OBJECT_NAME":"STARLINK-1184","MEAN_MOTION_DDOT":"0.0000000000000","APOAPSIS":"548.071"},{"COUNTRY_CODE":"US","PERIAPSIS":"546.282","RCS_SIZE":"LARGE","CENTER_NAME":"EARTH","MEAN_ELEMENT_THEORY":"SGP4","SITE":"AFETR","MEAN_MOTION":"15.06414355","TLE_LINE1":"1 45099U 20006BH  22220.59014482  .00002111  00000-0  16050-3 0  9996","ELEMENT_SET_NO":"999","FILE":"3532305","BSTAR":"0.00016050000000","REF_FRAME":"TEME","TLE_LINE2":"2 45099  53.0562   3.4072 0001282  85.3861 274.7274 15.06414355139718","REV_AT_EPOCH":"13971","TIME_SYSTEM":"UTC","SEMIMAJOR_AXIS":"6925.305","OBJECT_TYPE":"PAYLOAD","MEAN_ANOMALY":"274.7274","CLASSIFICATION_TYPE":"U","OBJECT_ID":"2020-006BH","DECAY_DATE":null,"PERIOD":"95.591","INCLINATION":"53.0562","ECCENTRICITY":"0.00012820","ARG_OF_PERICENTER":"85.3861","NORAD_CAT_ID":"45099","MEAN_MOTION_DOT":"0.00002111","APOAPSIS":"548.057","MEAN_MOTION_DDOT":"0.0000000000000","GP_ID":"209858392","OBJECT_NAME":"STARLINK-1186","EPOCH":"2022-08-08T14:09:48.512448","LAUNCH_DATE":"2020-01-29","EPHEMERIS_TYPE":"0","RA_OF_ASC_NODE":"3.4072"},{"REV_AT_EPOCH":"13974","TIME_SYSTEM":"UTC","FILE":"3532305","BSTAR":"0.00021137000000","REF_FRAME":"TEME","TLE_LINE1":"1 45100U 20006BJ  22220.81866706  .00002869  00000-0  21137-3 0  9990","ELEMENT_SET_NO":"999","TLE_LINE2":"2 45100  53.0558   2.3794 0001326  83.8495 276.2645 15.06413782139745","RCS_SIZE":"LARGE","CENTER_NAME":"EARTH","MEAN_ELEMENT_THEORY":"SGP4","SITE":"AFETR","MEAN_MOTION":"15.06413782","COUNTRY_CODE":"US","PERIAPSIS":"546.253","EPHEMERIS_TYPE":"0","LAUNCH_DATE":"2020-01-29","RA_OF_ASC_NODE":"2.3794","APOAPSIS":"548.090","MEAN_MOTION_DDOT":"0.0000000000000","OBJECT_NAME":"STARLINK-1193","GP_ID":"209859642","EPOCH":"2022-08-08T19:38:52.833984","ECCENTRICITY":"0.00013260","NORAD_CAT_ID":"45100","ARG_OF_PERICENTER":"83.8495","MEAN_MOTION_DOT":"0.00002869","SEMIMAJOR_AXIS":"6925.306","CLASSIFICATION_TYPE":"U","MEAN_ANOMALY":"276.2645","OBJECT_TYPE":"PAYLOAD","PERIOD":"95.591","DECAY_DATE":null,"OBJECT_ID":"2020-006BJ","INCLINATION":"53.0558"},{"OBJECT_NAME":"STARLINK-1194","GP_ID":"209859893","EPOCH":"2022-08-08T16:21:08.292672","APOAPSIS":"548.191","MEAN_MOTION_DDOT":"0.0000000000000","RA_OF_ASC_NODE":"2.9649","LAUNCH_DATE":"2020-01-29","EPHEMERIS_TYPE":"0","DECAY_DATE":null,"PERIOD":"95.591","OBJECT_ID":"2020-006BK","INCLINATION":"53.0560","SEMIMAJOR_AXIS":"6925.314","CLASSIFICATION_TYPE":"U","MEAN_ANOMALY":"271.3416","OBJECT_TYPE":"PAYLOAD","NORAD_CAT_ID":"45101","ARG_OF_PERICENTER":"88.7740","MEAN_MOTION_DOT":"0.00000754","ECCENTRICITY":"0.00014610","TLE_LINE2":"2 45101  53.0560   2.9649 0001461  88.7740 271.3416 15.06411164139723","FILE":"3532305","REF_FRAME":"TEME","BSTAR":"0.00006951800000","ELEMENT_SET_NO":"999","TLE_LINE1":"1 45101U 20006BK  22220.68134598  .00000754  00000-0  69518-4 0  9990","REV_AT_EPOCH":"13972","TIME_SYSTEM":"UTC","PERIAPSIS":"546.168","COUNTRY_CODE":"US","CENTER_NAME":"EARTH","MEAN_ELEMENT_THEORY":"SGP4","SITE":"AFETR","MEAN_MOTION":"15.06411164","RCS_SIZE":"LARGE"},{"TLE_LINE2":"2 45102  53.0557   2.5836 0001208 112.6139 247.4978 15.06414150139738","BSTAR":"-0.00022891000000","FILE":"3532305","REF_FRAME":"TEME","TLE_LINE1":"1 45102U 20006BL  22220.77075771 -.00003691  00000-0 -22891-3 0  9995","ELEMENT_SET_NO":"999","TIME_SYSTEM":"UTC","REV_AT_EPOCH":"13973","PERIAPSIS":"546.334","COUNTRY_CODE":"US","SITE":"AFETR","MEAN_MOTION":"15.06414150","CENTER_NAME":"EARTH","MEAN_ELEMENT_THEORY":"SGP4","RCS_SIZE":"LARGE","EPOCH":"2022-08-08T18:29:53.466144","OBJECT_NAME":"STARLINK-1195","GP_ID":"209858642","MEAN_MOTION_DDOT":"0.0000000000000","APOAPSIS":"548.007","RA_OF_ASC_NODE":"2.5836","LAUNCH_DATE":"2020-01-29","EPHEMERIS_TYPE":"0","INCLINATION":"53.0557","PERIOD":"95.591","DECAY_DATE":null,"OBJECT_ID":"2020-006BL","CLASSIFICATION_TYPE":"U","MEAN_ANOMALY":"247.4978","OBJECT_TYPE":"PAYLOAD","SEMIMAJOR_AXIS":"6925.305","MEAN_MOTION_DOT":"-0.00003691","NORAD_CAT_ID":"45102","ARG_OF_PERICENTER":"112.6139","ECCENTRICITY":"0.00012080"},{"APOAPSIS":"548.159","MEAN_MOTION_DDOT":"0.0000000000000","OBJECT_NAME":"STARLINK-1196","GP_ID":"209858892","EPOCH":"2022-08-08T19:16:18.513120","LAUNCH_DATE":"2020-01-29","EPHEMERIS_TYPE":"0","RA_OF_ASC_NODE":"2.4420","SEMIMAJOR_AXIS":"6925.311","CLASSIFICATION_TYPE":"U","OBJECT_TYPE":"PAYLOAD","MEAN_ANOMALY":"246.6155","PERIOD":"95.591","DECAY_DATE":null,"OBJECT_ID":"2020-006BM","INCLINATION":"53.0499","ECCENTRICITY":"0.00014190","NORAD_CAT_ID":"45103","ARG_OF_PERICENTER":"113.4983","MEAN_MOTION_DOT":"0.00005019","BSTAR":"0.00035550000000","FILE":"3532305","REF_FRAME":"TEME","ELEMENT_SET_NO":"999","TLE_LINE1":"1 45103U 20006BM  22220.80299205  .00005019  00000-0  35550-3 0  9990","TLE_LINE2":"2 45103  53.0499   2.4420 0001419 113.4983 246.6155 15.06412169139749","REV_AT_EPOCH":"13974","TIME_SYSTEM":"UTC","COUNTRY_CODE":"US","PERIAPSIS":"546.194","RCS_SIZE":"LARGE","CENTER_NAME":"EARTH","MEAN_ELEMENT_THEORY":"SGP4","SITE":"AFETR","MEAN_MOTION":"15.06412169"},{"RCS_SIZE":"LARGE","CENTER_NAME":"EARTH","MEAN_ELEMENT_THEORY":"SGP4","SITE":"AFETR","MEAN_MOTION":"15.06405975","COUNTRY_CODE":"US","PERIAPSIS":"545.819","REV_AT_EPOCH":"13750","TIME_SYSTEM":"UTC","REF_FRAME":"TEME","FILE":"3532305","BSTAR":"0.00014485000000","TLE_LINE1":"1 45178U 20012A   22220.85553398  .00001877  00000-0  14485-3 0  9992","ELEMENT_SET_NO":"999","TLE_LINE2":"2 45178  53.0552 162.2167 0001987  76.6677 283.4534 15.06405975137503","ECCENTRICITY":"0.00019870","NORAD_CAT_ID":"45178","ARG_OF_PERICENTER":"76.6677","MEAN_MOTION_DOT":"0.00001877","SEMIMAJOR_AXIS":"6925.330","CLASSIFICATION_TYPE":"U","MEAN_ANOMALY":"283.4534","OBJECT_TYPE":"PAYLOAD","DECAY_DATE":null,"PERIOD":"95.592","OBJECT_ID":"2020-012A","INCLINATION":"53.0552","LAUNCH_DATE":"2020-02-17","EPHEMERIS_TYPE":"0","RA_OF_ASC_NODE":"162.2167","APOAPSIS":"548.571","MEAN_MOTION_DDOT":"0.0000000000000","OBJECT_NAME":"STARLINK-1138","GP_ID":"209859401","EPOCH":"2022-08-08T20:31:58.135872"},{"CLASSIFICATION_TYPE":"U","OBJECT_TYPE":"PAYLOAD","MEAN_ANOMALY":"284.3452","SEMIMAJOR_AXIS":"6925.335","INCLINATION":"53.0560","DECAY_DATE":null,"PERIOD":"95.592","OBJECT_ID":"2020-012B","ECCENTRICITY":"0.00017430","MEAN_MOTION_DOT":"-0.00000896","NORAD_CAT_ID":"45179","ARG_OF_PERICENTER":"75.7730","MEAN_MOTION_DDOT":"0.0000000000000","APOAPSIS":"548.407","EPOCH":"2022-08-08T03:04:59.375136","OBJECT_NAME":"STARLINK-1143","GP_ID":"209828958","LAUNCH_DATE":"2020-02-17","EPHEMERIS_TYPE":"0","RA_OF_ASC_NODE":"165.4529","COUNTRY_CODE":"US","PERIAPSIS":"545.993","RCS_SIZE":"LARGE","SITE":"AFETR","MEAN_MOTION":"15.06404515","MEAN_ELEMENT_THEORY":"SGP4","CENTER_NAME":"EARTH","FILE":"3532128","BSTAR":"-0.00004122300000","REF_FRAME":"TEME","ELEMENT_SET_NO":"999","TLE_LINE1":"1 45179U 20012B   22220.12846499 -.00000896  00000-0 -41223-4 0  9993","TLE_LINE2":"2 45179  53.0560 165.4529 0001743  75.7730 284.3452 15.06404515137452","TIME_SYSTEM":"UTC","REV_AT_EPOCH":"13745"},{"PERIAPSIS":"532.708","COUNTRY_CODE":"US","CENTER_NAME":"EARTH","MEAN_ELEMENT_THEORY":"SGP4","MEAN_MOTION":"15.10730179","SITE":"AFETR","RCS_SIZE":"LARGE","TLE_LINE2":"2 45180  53.0512 162.1952 0001832  96.4640 263.6559 15.10730179137512","REF_FRAME":"TEME","FILE":"3532128","BSTAR":"0.00110100000000","TLE_LINE1":"1 45180U 20012C   22220.27072004  .00018214  00000-0  11010-2 0  9994","ELEMENT_SET_NO":"999","REV_AT_EPOCH":"13751","TIME_SYSTEM":"UTC","PERIOD":"95.318","DECAY_DATE":null,"OBJECT_ID":"2020-012C","INCLINATION":"53.0512","SEMIMAJOR_AXIS":"6912.109","CLASSIFICATION_TYPE":"U","MEAN_ANOMALY":"263.6559","OBJECT_TYPE":"PAYLOAD","NORAD_CAT_ID":"45180","ARG_OF_PERICENTER":"96.4640","MEAN_MOTION_DOT":"0.00018214","ECCENTRICITY":"0.00018320","OBJECT_NAME":"STARLINK-1192","GP_ID":"209829708","EPOCH":"2022-08-08T06:29:50.211456","APOAPSIS":"535.240","MEAN_MOTION_DDOT":"0.0000000000000","RA_OF_ASC_NODE":"162.1952","LAUNCH_DATE":"2020-02-17","EPHEMERIS_TYPE":"0"},{"TLE_LINE1":"1 45181U 20012D   22220.84447529  .00001330  00000-0  10818-3 0  9993","ELEMENT_SET_NO":"999","BSTAR":"0.00010818000000","FILE":"3532305","REF_FRAME":"TEME","TLE_LINE2":"2 45181  53.0552 162.2663 0001666  72.9912 287.1259 15.06407404137563","TIME_SYSTEM":"UTC","REV_AT_EPOCH":"13756","COUNTRY_CODE":"US","PERIAPSIS":"546.037","RCS_SIZE":"LARGE","SITE":"AFETR","MEAN_MOTION":"15.06407404","CENTER_NAME":"EARTH","MEAN_ELEMENT_THEORY":"SGP4","MEAN_MOTION_DDOT":"0.0000000000000","APOAPSIS":"548.345","EPOCH":"2022-08-08T20:16:02.665056","GP_ID":"209859650","OBJECT_NAME":"STARLINK-1200","EPHEMERIS_TYPE":"0","LAUNCH_DATE":"2020-02-17","RA_OF_ASC_NODE":"162.2663","MEAN_ANOMALY":"287.1259","OBJECT_TYPE":"PAYLOAD","CLASSIFICATION_TYPE":"U","SEMIMAJOR_AXIS":"6925.326","INCLINATION":"53.0552","OBJECT_ID":"2020-012D","DECAY_DATE":null,"PERIOD":"95.592","ECCENTRICITY":"0.00016660","MEAN_MOTION_DOT":"0.00001330","ARG_OF_PERICENTER":"72.9912","NORAD_CAT_ID":"45181"}];
